{
  "type": "FeatureCollection",
  "name": "kharghar_aoi",
  "crs": {
    "type": "name",
    "properties": {
      "name": "urn:ogc:def:crs:OGC:1.3:CRS84"
    }
  },
  "features": [
    {
      "type": "Feature",
      "properties": {
        "aoi_id": "kharghar-v1",
        "name": "Kharghar hackathon demonstration AOI",
        "boundary_type": "team_defined_rectangular_extent"
      },
      "geometry": {
        "type": "Polygon",
        "coordinates": [
          [
            [
              73.09,
              19.01
            ],
            [
              73.09,
              19.075
            ],
            [
              73.045,
              19.075
            ],
            [
              73.045,
              19.01
            ],
            [
              73.09,
              19.01
            ]
          ]
        ]
      }
    }
  ]
}
